CTC1_L_00465025-05
1 74753U 23059PB  26037.47806713  .00000000  00000+0  00000-0 0  9998
2 74753  45.0000 288.0000 0000000   0.0000 158.4000 13.98209858    17
CTC1_L_00465026-01
1 74754U 26180IF  26037.47806713  .00000000  00000+0  00000-0 0  9997
2 74754  45.0000 300.0000 0000000   0.0000 240.0000 13.98209858    11
CTC1_L_00465026-02
1 74755U 26479RE  26037.47806713  .00000000  00000+0  00000-0 0  9999
2 74755  45.0000 300.0000 0000000   0.0000 312.0000 13.98209858    12
CTC1_L_00465026-03
1 74756U 25091IP  26037.47806713  .00000000  00000+0  00000-0 0  9999
2 74756  45.0000 300.0000 0000000   0.0000  24.0000 13.98209858    13
CTC1_L_00465026-04
1 74757U 26853GJ  26037.47806713  .00000000  00000+0  00000-0 0  9997
2 74757  45.0000 300.0000 0000000   0.0000  96.0000 13.98209858    13
CTC1_L_00465026-05
1 74758U 26106YZ  26037.47806713  .00000000  00000+0  00000-0 0  9999
2 74758  45.0000 300.0000 0000000   0.0000 168.0000 13.98209858    14
CTC1_L_00465027-01
1 74759U 24996GG  26037.47806713  .00000000  00000+0  00000-0 0  9995
2 74759  45.0000 312.0000 0000000   0.0000 249.6000 13.98209858    14
CTC1_L_00465027-02
1 74760U 22665XM  26037.47806713  .00000000  00000+0  00000-0 0  9998
2 74760  45.0000 312.0000 0000000   0.0000 321.6000 13.98209858    17
CTC1_L_00465027-03
1 74761U 23840JI  26037.47806713  .00000000  00000+0  00000-0 0  9995
2 74761  45.0000 312.0000 0000000   0.0000  33.6000 13.98209858    18
CTC1_L_00465027-04
1 74762U 22227IG  26037.47806713  .00000000  00000+0  00000-0 0  9994
2 74762  45.0000 312.0000 0000000   0.0000 105.6000 13.98209858    19
CTC1_L_00465027-05
1 74763U 24037QD  26037.47806713  .00000000  00000+0  00000-0 0  9996
2 74763  45.0000 312.0000 0000000   0.0000 177.6000 13.98209858    19
CTC1_L_00465028-01
1 74764U 24153WQ  26037.47806713  .00000000  00000+0  00000-0 0  9996
2 74764  45.0000 324.0000 0000000   0.0000 259.2000 13.98209858    10
CTC1_L_00465028-02
1 74765U 22206YU  26037.47806713  .00000000  00000+0  00000-0 0  9994
2 74765  45.0000 324.0000 0000000   0.0000 331.2000 13.98209858    12
CTC1_L_00465028-03
1 74766U 26623AG  26037.47806713  .00000000  00000+0  00000-0 0  9992
2 74766  45.0000 324.0000 0000000   0.0000  43.2000 13.98209858    13
CTC1_L_00465028-04
1 74767U 26761TV  26037.47806713  .00000000  00000+0  00000-0 0  9996
2 74767  45.0000 324.0000 0000000   0.0000 115.2000 13.98209858    14
CTC1_L_00465028-05
1 74768U 24611AA  26037.47806713  .00000000  00000+0  00000-0 0  9999
2 74768  45.0000 324.0000 0000000   0.0000 187.2000 13.98209858    14
CTC1_L_00465029-01
1 74769U 23302XB  26037.47806713  .00000000  00000+0  00000-0 0  9996
2 74769  45.0000 336.0000 0000000   0.0000 268.8000 13.98209858    14
CTC1_L_00465029-02
1 74770U 22599TO  26037.47806713  .00000000  00000+0  00000-0 0  9995
2 74770  45.0000 336.0000 0000000   0.0000 340.8000 13.98209858    17
CTC1_L_00465029-03
1 74771U 23363NL  26037.47806713  .00000000  00000+0  00000-0 0  9996
2 74771  45.0000 336.0000 0000000   0.0000  52.8000 13.98209858    18
CTC1_L_00465029-04
1 74772U 26199XT  26037.47806713  .00000000  00000+0  00000-0 0  9997
2 74772  45.0000 336.0000 0000000   0.0000 124.8000 13.98209858    19
CTC1_L_00465029-05
1 74773U 23737IY  26037.47806713  .00000000  00000+0  00000-0 0  9993
2 74773  45.0000 336.0000 0000000   0.0000 196.8000 13.98209858    19
CTC1_L_00465030-01
1 74774U 23938UP  26037.47806713  .00000000  00000+0  00000-0 0  9997
2 74774  45.0000 348.0000 0000000   0.0000 278.4000 13.98209858    10
CTC1_L_00465030-02
1 74775U 22154HY  26037.47806713  .00000000  00000+0  00000-0 0  9997
2 74775  45.0000 348.0000 0000000   0.0000 350.4000 13.98209858    12
CTC1_L_00465030-03
1 74776U 24752RS  26037.47806713  .00000000  00000+0  00000-0 0  9994
2 74776  45.0000 348.0000 0000000   0.0000  62.4000 13.98209858    13
CTC1_L_00465030-04
1 74777U 25217GK  26037.47806713  .00000000  00000+0  00000-0 0  9992
2 74777  45.0000 348.0000 0000000   0.0000 134.4000 13.98209858    14
CTC1_L_00465030-05
1 74778U 23014XJ  26037.47806713  .00000000  00000+0  00000-0 0  9996
2 74778  45.0000 348.0000 0000000   0.0000 206.4000 13.98209858    15
